NORAD_CAT_ID,OBJECT_NAME,OBJECT_TYPE,EPOCH,MEAN_MOTION,ECCENTRICITY,INCLINATION,RA_OF_ASC_NODE,ARG_OF_PERICENTER,MEAN_ANOMALY,BSTAR,MEAN_MOTION_DOT,MEAN_MOTION_DDOT,TLE_LINE0,TLE_LINE1,TLE_LINE2,SEMIMAJOR_AXIS,PERIOD,APOGEE,PERIGEE,DECAYED
52692.0,STARLINK-3993,PAYLOAD,2023-09-15 06:42:44,15.1048398,0.0001512,53.2156,253.0195,92.1342,267.9824,0.00015854,2.348e-05,0.0,0 STARLINK-3993,1 52692U 22053AN  23258.27967854  .00002348  00000-0  15854-3 0  9997,2 52692  53.2156 253.0195 0001512  92.1342 267.9824 15.10483980 74315,6912.86,95.334,535.77,533.68,0.0
52692.0,STARLINK-3993,PAYLOAD,2023-09-16 00:10:50,15.10473311,0.0001561,53.2163,249.7448,84.564,275.5531,0.00017703,2.655e-05,0.0,0 STARLINK-3993,1 52692U 22053AN  23259.00753442  .00002655  00000-0  17703-3 0  9991,2 52692  53.2163 249.7448 0001561  84.5640 275.5531 15.10473311 74021,6912.893,95.334,535.837,533.678,0.0
52692.0,STARLINK-3993,PAYLOAD,2023-09-16 08:07:15,15.10483665,0.0001782,53.2174,248.2565,95.3034,264.8162,7.5496e-05,9.64e-06,0.0,0 STARLINK-3993,1 52692U 22053AN  23259.33836996  .00000964  00000-0  75496-4 0  9998,2 52692  53.2174 248.2565 0001782  95.3034 264.8162 15.10483665 74078,6912.861,95.334,535.958,533.494,0.0
52692.0,STARLINK-3993,PAYLOAD,2023-09-16 16:03:40,15.10474978,0.0001684,53.2175,246.7676,81.1918,278.9266,0.00010275,1.418e-05,0.0,0 STARLINK-3993,1 52692U 22053AN  23259.66921724  .00001418  00000-0  10275-3 0  9996,2 52692  53.2175 246.7676 0001684  81.1918 278.9266 15.10474978 74124,6912.887,95.334,535.917,533.588,0.0
52692.0,STARLINK-3993,PAYLOAD,2023-09-17 09:31:46,15.10480833,0.0001619,53.2171,243.4912,92.6561,267.4617,2.3733e-05,1.02e-06,0.0,0 STARLINK-3993,1 52692U 22053AN  23260.39706517  .00000102  00000-0  23733-4 0  9992,2 52692  53.2171 243.4912 0001619  92.6561 267.4617 15.10480833 74632,6912.87,95.334,535.854,533.615,0.0
52692.0,STARLINK-3993,PAYLOAD,2023-09-18 02:59:52,15.10472763,0.000169,53.2167,240.2147,92.0348,268.0838,0.00019779,3.001e-05,0.0,0 STARLINK-3993,1 52692U 22053AN  23261.12491803  .00003001  00000-0  19779-3 0  9998,2 52692  53.2167 240.2147 0001690  92.0348 268.0838 15.10472763 74341,6912.894,95.334,535.927,533.591,0.0
52692.0,STARLINK-3993,PAYLOAD,2023-09-18 07:45:43,15.10483962,0.000156,53.2167,239.3211,89.5667,270.5505,7.4538e-05,9.49e-06,0.0,0 STARLINK-3993,1 52692U 22053AN  23261.32341652  .00000949  00000-0  74538-4 0  9999,2 52692  53.2167 239.3211 0001560  89.5667 270.5505 15.10483962 74378,6912.86,95.334,535.803,533.647,0.0
52692.0,STARLINK-3993,PAYLOAD,2023-09-18 15:42:07,15.10480856,0.0001488,53.2165,237.8318,91.9032,268.2131,7.3304e-05,9.28e-06,0.0,0 STARLINK-3993,1 52692U 22053AN  23261.65425865  .00000928  00000-0  73304-4 0  9991,2 52692  53.2165 237.8318 0001488  91.9032 268.2131 15.10480856 74827,6912.869,95.334,535.763,533.706,0.0
52692.0,STARLINK-3993,PAYLOAD,2023-09-20 02:38:20,15.10475672,0.0001575,53.2161,231.2788,95.3399,264.7774,5.0989e-05,5.56e-06,0.0,0 STARLINK-3993,1 52692U 22053AN  23263.10996061  .00000556  00000-0  50989-4 0  9995,2 52692  53.2161 231.2788 0001575  95.3399 264.7774 15.10475672 74647,6912.885,95.334,535.839,533.662,0.0
52692.0,STARLINK-3993,PAYLOAD,2023-09-20 07:24:11,15.10477582,0.0001631,53.2162,230.3841,94.9711,265.1469,4.5844e-05,4.71e-06,0.0,0 STARLINK-3993,1 52692U 22053AN  23263.30846467  .00000471  00000-0  45844-4 0  9991,2 52692  53.2162 230.3841 0001631  94.9711 265.1469 15.10477582 75070,6912.879,95.334,535.872,533.617,0.0
52692.0,STARLINK-3993,PAYLOAD,2023-09-20 15:20:36,15.10468164,0.0001762,53.217,228.8956,83.8176,276.3018,-7.4816e-05,-1.538e-05,0.0,0 STARLINK-3993,1 52692U 22053AN  23263.63931253 -.00001538  00000-0 -74816-4 0  9993,2 52692  53.2170 228.8956 0001762  83.8176 276.3018 15.10468164 74726,6912.908,95.335,535.991,533.555,0.0
52692.0,STARLINK-3993,PAYLOAD,2023-09-20 21:41:44,15.10466714,0.0001713,53.217,227.706,83.7124,276.4064,-4.0181e-05,-9.61e-06,0.0,0 STARLINK-3993,1 52692U 22053AN  23263.90398796 -.00000961  00000-0 -40181-4 0  9999,2 52692  53.2170 227.7060 0001713  83.7124 276.4064 15.10466714 75168,6912.913,95.335,535.962,533.593,0.0
52692.0,STARLINK-3993,PAYLOAD,2023-09-21 07:13:25,15.10471704,0.0001479,53.2162,225.9174,94.4833,265.6328,-2.6892e-05,-7.4e-06,0.0,0 STARLINK-3993,1 52692U 22053AN  23264.30099514 -.00000740  00000-0 -26892-4 0  9998,2 52692  53.2162 225.9174 0001479  94.4833 265.6328 15.10471704 75225,6912.897,95.334,535.785,533.74,0.0
52692.0,STARLINK-3993,PAYLOAD,2023-09-21 15:09:50,15.10474763,0.0001475,53.217,224.4287,97.9535,262.1625,0.00019167,2.899e-05,0.0,0 STARLINK-3993,1 52692U 22053AN  23264.63183632  .00002899  00000-0  19167-3 0  9990,2 52692  53.2170 224.4287 0001475  97.9535 262.1625 15.10474763 74876,6912.888,95.334,535.773,533.733,0.0
52692.0,STARLINK-3993,PAYLOAD,2023-09-22 02:16:48,15.10487475,0.0001342,53.2161,222.3443,94.284,265.8306,0.00027857,4.349e-05,0.0,0 STARLINK-3993,1 52692U 22053AN  23265.09500789  .00004349  00000-0  27857-3 0  9994,2 52692  53.2161 222.3443 0001342  94.2840 265.8306 15.10487475 74947,6912.849,95.333,535.642,533.787,0.0
52692.0,STARLINK-3993,PAYLOAD,2023-09-22 07:02:39,15.10486254,0.0001505,53.2166,221.4505,97.9129,262.2035,0.00061512,9.965e-05,0.0,0 STARLINK-3993,1 52692U 22053AN  23265.29351460  .00009965  00000-0  61512-3 0  9991,2 52692  53.2166 221.4505 0001505  97.9129 262.2035 15.10486254 75374,6912.853,95.334,535.758,533.678,0.0
52692.0,STARLINK-3993,PAYLOAD,2023-09-23 02:06:02,15.10486629,0.0001298,53.216,217.8776,82.3638,277.7502,0.00027896,4.356e-05,0.0,0 STARLINK-3993,1 52692U 22053AN  23266.08753195  .00004356  00000-0  27896-3 0  9996,2 52692  53.2160 217.8776 0001298  82.3638 277.7502 15.10486629 75094,6912.852,95.334,535.614,533.82,0.0
52692.0,STARLINK-3993,PAYLOAD,2023-09-23 06:51:53,15.10491908,0.0001282,53.2162,216.9842,83.7857,276.3282,0.00030167,4.735e-05,0.0,0 STARLINK-3993,1 52692U 22053AN  23266.28603304  .00004735  00000-0  30167-3 0  9990,2 52692  53.2162 216.9842 0001282  83.7857 276.3282 15.10491908 75525,6912.836,95.333,535.587,533.815,0.0
52692.0,STARLINK-3993,PAYLOAD,2023-09-24 01:55:16,15.10484151,0.0001479,53.2167,213.4084,82.4406,277.6755,9.9876e-05,1.371e-05,0.0,0 STARLINK-3993,1 52692U 22053AN  23267.08005047  .00001371  00000-0  99876-4 0  9995,2 52692  53.2167 213.4084 0001479  82.4406 277.6755 15.10484151 75244,6912.859,95.334,535.747,533.702,0.0
52692.0,STARLINK-3993,PAYLOAD,2023-09-24 05:05:50,15.10489997,0.0001478,53.217,212.8122,79.6063,280.5097,0.00021228,3.244e-05,0.0,0 STARLINK-3993,1 52692U 22053AN  23267.21238471  .00003244  00000-0  21228-3 0  9995,2 52692  53.2170 212.8122 0001478  79.6063 280.5097 15.10489997 75661,6912.842,95.333,535.728,533.685,0.0
52692.0,STARLINK-3993,PAYLOAD,2023-09-25 03:19:47,15.10480381,0.0001375,53.2165,208.6513,96.5902,263.5248,0.00015591,2.304e-05,0.0,0 STARLINK-3993,1 52692U 22053AN  23268.13874463  .00002304  00000-0  15591-3 0  9996,2 52692  53.2165 208.6513 0001375  96.5902 263.5248 15.10480381 75407,6912.871,95.334,535.686,533.785,0.0
52692.0,STARLINK-3993,PAYLOAD,2023-09-25 06:30:21,15.10494006,0.0001247,53.2159,208.0517,84.6828,275.4307,0.0005344,8.619e-05,0.0,0 STARLINK-3993,1 52692U 22053AN  23268.27107655  .00008619  00000-0  53440-3 0  9993,2 52692  53.2159 208.0517 0001247  84.6828 275.4307 15.10494006 75420,6912.829,95.333,535.556,533.832,0.0
52692.0,STARLINK-3993,PAYLOAD,2023-09-25 12:51:28,15.10488406,0.0001318,53.2158,206.8629,94.0324,266.0819,0.00058526,9.467e-05,0.0,0 STARLINK-3993,1 52692U 22053AN  23268.53575119  .00009467  00000-0  58526-3 0  9998,2 52692  53.2158 206.8629 0001318  94.0324 266.0819 15.10488406 75863,6912.846,95.333,535.623,533.8,0.0
52692.0,STARLINK-3993,PAYLOAD,2023-09-26 04:44:17,15.1051708,0.0001578,53.2172,203.882,85.0455,275.0718,0.0014668,0.00024237,0.0,0 STARLINK-3993,1 52692U 22053AN  23269.19742089  .00024237  00000-0  14668-2 0  9993,2 52692  53.2172 203.8820 0001578  85.0455 275.0718 15.10517080 75568,6912.759,95.332,535.715,533.533,0.0
52692.0,STARLINK-3993,PAYLOAD,2023-09-27 01:23:08,15.10258838,0.0001584,53.214,200.0102,184.0935,176.0045,-0.0023693,-0.00039286,0.0,0 STARLINK-3993,1 52692U 22053AN  23270.05773496 -.00039286  00000-0 -23693-2 0  9996,2 52692  53.2140 200.0102 0001584 184.0935 176.0045 15.10258838 75695,6913.547,95.348,536.507,534.317,0.0
52692.0,STARLINK-3993,PAYLOAD,2023-09-27 02:58:26,15.10015134,0.0001515,53.2144,199.7125,98.1733,261.9432,-0.011366,-0.0018243,0.0,0 STARLINK-3993,1 52692U 22053AN  23270.12392330 -.00182430  00000-0 -11366-1 0  9991,2 52692  53.2144 199.7125 0001515  98.1733 261.9432 15.10015134 75709,6914.291,95.363,537.203,535.108,0.0
52692.0,STARLINK-3993,PAYLOAD,2023-09-27 18:51:57,15.0929769,0.0001818,53.2165,196.7414,104.9084,255.211,-0.0052371,-0.00083712,0.0,0 STARLINK-3993,1 52692U 22053AN  23270.78608078 -.00083712  00000-0 -52371-2 0  9997,2 52692  53.2165 196.7414 0001818 104.9084 255.2110 15.09297690 75808,6916.482,95.409,539.604,537.089,0.0
52692.0,STARLINK-3993,PAYLOAD,2023-09-28 06:00:00,15.08815048,0.0001438,53.2156,194.6581,87.7766,274.0025,0.0025583,0.00040635,0.0,0 STARLINK-3993,1 52692U 22053AN  23271.25001157  .00040635  00000-0  25583-2 0  9995,2 52692  53.2156 194.6581 0001438  87.7766 274.0025 15.08815048 75876,6917.957,95.439,540.816,538.827,0.0
52692.0,STARLINK-3993,PAYLOAD,2023-09-28 14:00:01,15.08803315,0.0001433,53.2158,193.1599,103.2754,270.1455,0.0030084,0.00047868,0.0,0 STARLINK-3993,1 52692U 22053AN  23271.58335648  .00047868  00000-0  30084-2 0  9993,2 52692  53.2158 193.1599 0001433 103.2754 270.1455 15.08803315 75921,6917.993,95.44,540.849,538.866,0.0
52692.0,STARLINK-3993,PAYLOAD,2023-09-28 16:00:30,15.08800405,0.0001433,53.2157,192.784,104.7427,3.3958,0.0043146,0.00068976,0.0,0 STARLINK-3993,1 52692U 22053AN  23271.66702546  .00068976  00000-0  43146-2 0  9993,2 52692  53.2157 192.7840 0001433 104.7427   3.3958 15.08800405  5718,6918.001,95.44,540.858,538.875,0.0
